CTC1_L_00462001-01
1 85371U 25739QU  26037.47806713  .00000000  00000+0  00000-0 0  9993
2 85371  50.0000   0.0000 0000000   0.0000   0.0000 14.89338779    11
CTC1_L_00462001-02
1 85372U 25127HP  26037.47806713  .00000000  00000+0  00000-0 0  9995
2 85372  50.0000   0.0000 0000000   0.0000  15.6522 14.89338779    13
CTC1_L_00462001-03
1 85373U 22464EC  26037.47806713  .00000000  00000+0  00000-0 0  9997
2 85373  50.0000   0.0000 0000000   0.0000  31.3043 14.89338779    17
CTC1_L_00462001-04
1 85374U 25279JG  26037.47806713  .00000000  00000+0  00000-0 0  9995
2 85374  50.0000   0.0000 0000000   0.0000  46.9565 14.89338779    19
CTC1_L_00462001-05
1 85375U 23069CJ  26037.47806713  .00000000  00000+0  00000-0 0  9991
2 85375  50.0000   0.0000 0000000   0.0000  62.6087 14.89338779    14
CTC1_L_00462001-06
1 85376U 25725NW  26037.47806713  .00000000  00000+0  00000-0 0  9993
2 85376  50.0000   0.0000 0000000   0.0000  78.2609 14.89338779    18
CTC1_L_00462001-07
1 85377U 26142HR  26037.47806713  .00000000  00000+0  00000-0 0  9998
2 85377  50.0000   0.0000 0000000   0.0000  93.9130 14.89338779    12
CTC1_L_00462001-08
1 85378U 23652HI  26037.47806713  .00000000  00000+0  00000-0 0  9992
2 85378  50.0000   0.0000 0000000   0.0000 109.5652 14.89338779    16
CTC1_L_00462001-09
1 85379U 23911QW  26037.47806713  .00000000  00000+0  00000-0 0  9991
2 85379  50.0000   0.0000 0000000   0.0000 125.2174 14.89338779    11
CTC1_L_00462001-10
1 85380U 22926SN  26037.47806713  .00000000  00000+0  00000-0 0  9998
2 85380  50.0000   0.0000 0000000   0.0000 140.8696 14.89338779    15
CTC1_L_00462001-11
1 85381U 24220NZ  26037.47806713  .00000000  00000+0  00000-0 0  9998
2 85381  50.0000   0.0000 0000000   0.0000 156.5217 14.89338779    19
CTC1_L_00462001-12
1 85382U 23663PK  26037.47806713  .00000000  00000+0  00000-0 0  9999
2 85382  50.0000   0.0000 0000000   0.0000 172.1739 14.89338779    13
CTC1_L_00462001-13
1 85383U 22499FB  26037.47806713  .00000000  00000+0  00000-0 0  9996
2 85383  50.0000   0.0000 0000000   0.0000 187.8261 14.89338779    17
CTC1_L_00462001-14
1 85384U 25168UX  26037.47806713  .00000000  00000+0  00000-0 0  9993
2 85384  50.0000   0.0000 0000000   0.0000 203.4783 14.89338779    12
CTC1_L_00462001-15
1 85385U 23328AV  26037.47806713  .00000000  00000+0  00000-0 0  9990
2 85385  50.0000   0.0000 0000000   0.0000 219.1304 14.89338779    16
CTC1_L_00462001-16
1 85386U 26971NR  26037.47806713  .00000000  00000+0  00000-0 0  9998
2 85386  50.0000   0.0000 0000000   0.0000 234.7826 14.89338779    19
CTC1_L_00462001-17
1 85387U 25903UR  26037.47806713  .00000000  00000+0  00000-0 0  9993
2 85387  50.0000   0.0000 0000000   0.0000 250.4348 14.89338779    14
CTC1_L_00462001-18
1 85388U 25661KT  26037.47806713  .00000000  00000+0  00000-0 0  9995
2 85388  50.0000   0.0000 0000000   0.0000 266.0870 14.89338779    18
CTC1_L_00462001-19
1 85389U 23450LU  26037.47806713  .00000000  00000+0  00000-0 0  9990
2 85389  50.0000   0.0000 0000000   0.0000 281.7391 14.89338779    11
CTC1_L_00462001-20
1 85390U 25143ZT  26037.47806713  .00000000  00000+0  00000-0 0  9993
2 85390  50.0000   0.0000 0000000   0.0000 297.3913 14.89338779    16
CTC1_L_00462001-21
1 85391U 25810ZH  26037.47806713  .00000000  00000+0  00000-0 0  9995
2 85391  50.0000   0.0000 0000000   0.0000 313.0435 14.89338779    12
CTC1_L_00462001-22
1 85392U 25852TW  26037.47806713  .00000000  00000+0  00000-0 0  9992
2 85392  50.0000   0.0000 0000000   0.0000 328.6957 14.89338779    14
CTC1_L_00462001-23
1 85393U 26623VH  26037.47806713  .00000000  00000+0  00000-0 0  9990
2 85393  50.0000   0.0000 0000000   0.0000 344.3478 14.89338779    18
CTC1_L_00462002-01
1 85394U 24427DG  26037.47806713  .00000000  00000+0  00000-0 0  9991
2 85394  50.0000  12.0000 0000000   0.0000   2.0870 14.89338779    16
CTC1_L_00462002-02
1 85395U 26642IV  26037.47806713  .00000000  00000+0  00000-0 0  9993
2 85395  50.0000  12.0000 0000000   0.0000  17.7391 14.89338779    18
CTC1_L_00462002-03
1 85396U 25865EA  26037.47806713  .00000000  00000+0  00000-0 0  9990
2 85396  50.0000  12.0000 0000000   0.0000  33.3913 14.89338779    13
CTC1_L_00462002-04
1 85397U 25840CH  26037.47806713  .00000000  00000+0  00000-0 0  9994
2 85397  50.0000  12.0000 0000000   0.0000  49.0435 14.89338779    17
CTC1_L_00462002-05
1 85398U 23400JD  26037.47806713  .00000000  00000+0  00000-0 0  9995
2 85398  50.0000  12.0000 0000000   0.0000  64.6957 14.89338779    10
CTC1_L_00462002-06
1 85399U 22864TK  26037.47806713  .00000000  00000+0  00000-0 0  9999
2 85399  50.0000  12.0000 0000000   0.0000  80.3478 14.89338779    14
CTC1_L_00462002-07
1 85400U 23674X   26037.47806713  .00000000  00000+0  00000-0 0  9992
2 85400  50.0000  12.0000 0000000   0.0000  96.0000 14.89338779    12
CTC1_L_00462002-08
1 85401U 22791PQ  26037.47806713  .00000000  00000+0  00000-0 0  9992
2 85401  50.0000  12.0000 0000000   0.0000 111.6522 14.89338779    16
CTC1_L_00462002-09
1 85402U 26461B   26037.47806713  .00000000  00000+0  00000-0 0  9991
2 85402  50.0000  12.0000 0000000   0.0000 127.3043 14.89338779    19
CTC1_L_00462002-10
1 85403U 24129UP  26037.47806713  .00000000  00000+0  00000-0 0  9991
2 85403  50.0000  12.0000 0000000   0.0000 142.9565 14.89338779    12
CTC1_L_00462002-11
1 85404U 23262CD  26037.47806713  .00000000  00000+0  00000-0 0  9999
2 85404  50.0000  12.0000 0000000   0.0000 158.6087 14.89338779    16
CTC1_L_00462002-12
1 85405U 25072RL  26037.47806713  .00000000  00000+0  00000-0 0  9991
2 85405  50.0000  12.0000 0000000   0.0000 174.2609 14.89338779    11
CTC1_L_00462002-13
1 85406U 22596HZ  26037.47806713  .00000000  00000+0  00000-0 0  9990
2 85406  50.0000  12.0000 0000000   0.0000 189.9130 14.89338779    14
CTC1_L_00462002-14
1 85407U 22275CA  26037.47806713  .00000000  00000+0  00000-0 0  9995
2 85407  50.0000  12.0000 0000000   0.0000 205.5652 14.89338779    19
CTC1_L_00462002-15
1 85408U 25791UU  26037.47806713  .00000000  00000+0  00000-0 0  9992
2 85408  50.0000  12.0000 0000000   0.0000 221.2174 14.89338779    14
CTC1_L_00462002-16
1 85409U 22793ZR  26037.47806713  .00000000  00000+0  00000-0 0  9992
2 85409  50.0000  12.0000 0000000   0.0000 236.8696 14.89338779    16
CTC1_L_00462002-17
1 85410U 26237VF  26037.47806713  .00000000  00000+0  00000-0 0  9991
2 85410  50.0000  12.0000 0000000   0.0000 252.5217 14.89338779    12
CTC1_L_00462002-18
1 85411U 24707FV  26037.47806713  .00000000  00000+0  00000-0 0  9992
2 85411  50.0000  12.0000 0000000   0.0000 268.1739 14.89338779    15
CTC1_L_00462002-19
1 85412U 24124ZY  26037.47806713  .00000000  00000+0  00000-0 0  9996
2 85412  50.0000  12.0000 0000000   0.0000 283.8261 14.89338779    10
CTC1_L_00462002-20
1 85413U 26669AX  26037.47806713  .00000000  00000+0  00000-0 0  9993
2 85413  50.0000  12.0000 0000000   0.0000 299.4783 14.89338779    13
CTC1_L_00462002-21
1 85414U 22311HQ  26037.47806713  .00000000  00000+0  00000-0 0  9994
2 85414  50.0000  12.0000 0000000   0.0000 315.1304 14.89338779    19
CTC1_L_00462002-22
1 85415U 22737WF  26037.47806713  .00000000  00000+0  00000-0 0  9997
2 85415  50.0000  12.0000 0000000   0.0000 330.7826 14.89338779    12
CTC1_L_00462002-23
1 85416U 26858FB  26037.47806713  .00000000  00000+0  00000-0 0  9996
2 85416  50.0000  12.0000 0000000   0.0000 346.4348 14.89338779    16
CTC1_L_00462003-01
1 85417U 25638SL  26037.47806713  .00000000  00000+0  00000-0 0  9992
2 85417  50.0000  24.0000 0000000   0.0000   4.1739 14.89338779    12
CTC1_L_00462003-02
1 85418U 22398RP  26037.47806713  .00000000  00000+0  00000-0 0  9993
2 85418  50.0000  24.0000 0000000   0.0000  19.8261 14.89338779    16
CTC1_L_00462003-03
1 85419U 25203VM  26037.47806713  .00000000  00000+0  00000-0 0  9992
2 85419  50.0000  24.0000 0000000   0.0000  35.4783 14.89338779    10
CTC1_L_00462003-04
1 85420U 26007MZ  26037.47806713  .00000000  00000+0  00000-0 0  9997
2 85420  50.0000  24.0000 0000000   0.0000  51.1304 14.89338779    16
CTC1_L_00462003-05
1 85421U 22074FN  26037.47806713  .00000000  00000+0  00000-0 0  9998
2 85421  50.0000  24.0000 0000000   0.0000  66.7826 14.89338779    18
CTC1_L_00462003-06
1 85422U 24657OZ  26037.47806713  .00000000  00000+0  00000-0 0  9998
2 85422  50.0000  24.0000 0000000   0.0000  82.4348 14.89338779    13
CTC1_L_00462003-07
1 85423U 23876HT  26037.47806713  .00000000  00000+0  00000-0 0  9991
2 85423  50.0000  24.0000 0000000   0.0000  98.0870 14.89338779    17
CTC1_L_00462003-08
1 85424U 23233NW  26037.47806713  .00000000  00000+0  00000-0 0  9999
2 85424  50.0000  24.0000 0000000   0.0000 113.7391 14.89338779    11
CTC1_L_00462003-09
1 85425U 26170ZV  26037.47806713  .00000000  00000+0  00000-0 0  9993
2 85425  50.0000  24.0000 0000000   0.0000 129.3913 14.89338779    15
CTC1_L_00462003-10
1 85426U 26040JV  26037.47806713  .00000000  00000+0  00000-0 0  9990
2 85426  50.0000  24.0000 0000000   0.0000 145.0435 14.89338779    10
CTC1_L_00462003-11
1 85427U 25439LD  26037.47806713  .00000000  00000+0  00000-0 0  9992
2 85427  50.0000  24.0000 0000000   0.0000 160.6957 14.89338779    13
CTC1_L_00462003-12
1 85428U 24858FI  26037.47806713  .00000000  00000+0  00000-0 0  9997
2 85428  50.0000  24.0000 0000000   0.0000 176.3478 14.89338779    16
CTC1_L_00462003-13
1 85429U 22430T   26037.47806713  .00000000  00000+0  00000-0 0  9992
2 85429  50.0000  24.0000 0000000   0.0000 192.0000 14.89338779    13
CTC1_L_00462003-14
1 85430U 23998JB  26037.47806713  .00000000  00000+0  00000-0 0  9994
2 85430  50.0000  24.0000 0000000   0.0000 207.6522 14.89338779    17
CTC1_L_00462003-15
1 85431U 22508LK  26037.47806713  .00000000  00000+0  00000-0 0  9991
2 85431  50.0000  24.0000 0000000   0.0000 223.3043 14.89338779    11
CTC1_L_00462003-16
1 85432U 25530JV  26037.47806713  .00000000  00000+0  00000-0 0  9990
2 85432  50.0000  24.0000 0000000   0.0000 238.9565 14.89338779    13
